[{"OBJECT_NAME":"STARLINK-2299","OBJECT_ID":"2021-024BE","EPOCH":"2026-03-10T00:00:02.999808","MEAN_MOTION":15.15231686,"ECCENTRICITY":0.00013271,"INCLINATION":53.0911,"RA_OF_ASC_NODE":329.9231,"ARG_OF_PERICENTER":84.8975,"MEAN_ANOMALY":266.4896,"EPHEMERIS_TYPE":0,"CLASSIFICATION_TYPE":"U","NORAD_CAT_ID":48029,"ELEMENT_SET_NO":999,"REV_AT_EPOCH":574,"BSTAR":0.0017905191,"MEAN_MOTION_DOT":0.00033905,"MEAN_MOTION_DDOT":0},{"OBJECT_NAME":"YAOGAN-39 03B","OBJECT_ID":"2023-152C","EPOCH":"2026-03-09T19:01:55.564608","MEAN_MOTION":15.17016078,"ECCENTRICITY":0.00191509,"INCLINATION":34.9895,"RA_OF_ASC_NODE":196.0494,"ARG_OF_PERICENTER":57.0378,"MEAN_ANOMALY":303.2174,"EPHEMERIS_TYPE":0,"CLASSIFICATION_TYPE":"U","NORAD_CAT_ID":57988,"ELEMENT_SET_NO":999,"REV_AT_EPOCH":13508,"BSTAR":0.00044094259,"MEAN_MOTION_DOT":8.936e-5,"MEAN_MOTION_DDOT":0}]
